INTELSAT 10 (IS-10)     
1 26766U 01019A   25247.20663663  .00000005  00000+0  00000+0 0  9993
2 26766   8.3845  62.1562 0002275 172.6397  30.0773  0.99077678 42740
INTELSAT 902 (IS-902)   
1 26900U 01039A   25238.44791433 -.00000288  00000+0  00000+0 0  9992
2 26900   5.3676  75.3889 0004191  79.9975 290.7092  1.00272273 87746
INTELSAT 904 (IS-904)   
1 27380U 02007A   25247.26225424 -.00000203  00000+0  00000+0 0  9990
2 27380   6.1982  72.6093 0003096 104.0566 233.9359  1.00271473 48893
DIRECTV 5 (TEMPO 1)     
1 27426U 02023A   25246.64425044 -.00000057  00000+0  00000+0 0  9997
2 27426   4.1388  78.9021 0003332  91.2164 294.7292  1.00272361 85255
INTELSAT 905 (IS-905)   
1 27438U 02027A   25247.20984331  .00000094  00000+0  00000+0 0  9996
2 27438   6.0278  73.2417 0002435  91.9888 116.7077  1.00272903 48498
GALAXY 3C (G-3C)        
1 27445U 02030A   25247.21825001 -.00000153  00000+0  00000+0 0  9994
2 27445   2.9984  81.5812 0002555  51.5596 194.1700  1.00271862 43623
INTELSAT 906 (IS-906)   
1 27513U 02041A   25246.03638235  .00000013  00000+0  00000+0 0  9996
2 27513   5.0682  76.4643 0002114 109.5635 233.6428  1.00273221 84141
GALAXY 13 (HORIZONS-1)  
1 27954U 03044A   25247.20732997  .00000132  00000+0  00000+0 0  9991
2 27954   0.6740  88.0976 0002062  70.9056 109.2045  1.00270647 43703
INTELSAT 10-02          
1 28358U 04022A   25246.38038975 -.00000011  00000+0  00000+0 0  9997
2 28358   0.0440 274.5612 0000818 250.1876 313.9790  1.00272854 77688
XM-3 (RHYTHM)           
1 28626U 05008A   25246.22069667 -.00000198  00000+0  00000+0 0  9991
2 28626   0.0010  28.9340 0000221 171.1662 135.6185  1.00265791 39745
DIRECTV 8               
1 28659U 05019A   25247.07074269  .00000000  00000+0  00000+0 0  9998
2 28659   0.0158 124.5538 0003159  45.6919  79.6290  1.00272966 74205
GALAXY 28 (G-28)        
1 28702U 05022A   25246.43429990 -.00000187  00000+0  00000+0 0  9992
2 28702   2.5545  82.5311 0002111  81.4462 246.4976  1.00271371 49106
GALAXY 16 (G-16)        
1 29236U 06023A   25247.14605635 -.00000128  00000+0  00000+0 0  9993
2 29236   0.0514 242.1394 0002987 290.4735 124.4737  1.00270527 70105
DIRECTV 9S              
1 29494U 06043A   25247.21695001 -.00000114  00000+0  00000+0 0  9990
2 29494   1.6760  84.4572 0003053  82.5164 153.5205  1.00272140 48513
GALAXY 17 (G-17)        
1 31307U 07016B   25247.14882970 -.00000207  00000+0  00000+0 0  9995
2 31307   2.2408  83.5721 0003437 126.7787 101.7559  1.00272449 66934
DIRECTV 10              
1 31862U 07032A   25247.21669000 -.00000104  00000+0  00000+0 0  9990
2 31862   0.0413 311.4209 0000374 289.8288  77.5582  1.00270703 42728
INTELSAT 11 (IS-11)     
1 32253U 07044B   25247.19489273 -.00000185  00000+0  00000+0 0  9996
2 32253   2.8132  82.2148 0007281 111.0605 163.9635  0.99050757 65613
HORIZONS-2              
1 32388U 07063B   25247.22241003 -.00000254  00000+0  00000+0 0  9994
2 32388   1.8572  84.2237 0001888  94.0108 171.6352  1.00270610 64947
DIRECTV 11              
1 32729U 08013A   25246.28951030 -.00000126  00000+0  00000+0 0  9990
2 32729   0.0215 309.9186 0000139 202.0466 195.7451  1.00271183 42711
GALAXY 18 (G-18)        
1 32951U 08024A   25246.71306410  .00000025  00000+0  00000+0 0  9990
2 32951   0.0147 129.1145 0003452  40.9158 306.7545  1.00272126 42982
INTELSAT 25 (IS-25)     
1 33153U 08034A   25247.26225424 -.00000225  00000+0  00000+0 0  9995
2 33153   1.9641  83.9084 0004611 102.6796 219.9832  1.00272609 62822
GALAXY 19 (G-19)        
1 33376U 08045A   25246.53100178 -.00000140  00000+0  00000+0 0  9997
2 33376   0.0606 270.5414 0002903 248.9053 277.6290  1.00272410 62024
FM-5                    
1 35493U 09034A   25247.14856970 -.00000201  00000+0  00000+0 0  9992
2 35493   0.0415 273.8565 0000632 173.9658 223.0232  1.00270162 43776
INTELSAT 14 (IS-14)     
1 36097U 09064A   25247.19447608 -.00000275  00000+0  00000+0 0  9996
2 36097   0.0195 105.5421 0002533  57.7832 205.2566  1.00270459 57731
INTELSAT 15 (IS-15)     
1 36106U 09067A   25246.73194418 -.00000185  00000+0  00000+0 0  9997
2 36106   0.0228 245.6753 0002359 277.2947 168.7816  1.00270256 38358
DIRECTV 12              
1 36131U 09075A   25247.21669000 -.00000105  00000+0  00000+0 0  9994
2 36131   0.0185 319.7929 0000277 189.0643 170.0284  1.00271599 43684
INTELSAT 16 (IS-16)     
1 36397U 10006A   25246.57950479 -.00000245  00000+0  00000+0 0  9990
2 36397   0.0413 286.6649 0002143 233.3924 315.3262  1.00273120 56789
XM-5                    
1 37185U 10053A   25246.50183782 -.00000023  00000+0  00000+0 0  9990
2 37185   0.0576 275.8974 0000645 170.1764 322.2640  1.00269880 54605
INTELSAT 17 (IS-17)     
1 37238U 10065B   25246.97651506 -.00000002  00000+0  00000+0 0  9994
2 37238   0.0175 198.9360 0002672 335.7209 226.2319  1.00271003 50374
INTELSAT 28 (IS-28)     
1 37392U 11016A   25247.26225424 -.00000226  00000+0  00000+0 0  9999
2 37392   1.0603  86.4469 0004601  78.2014 241.7103  1.00272059 50410
INTELSAT 18 (IS-18)     
1 37834U 11056A   25246.63038370  .00000053  00000+0  00000+0 0  9993
2 37834   0.0163 225.7362 0001975 293.7221 230.4915  1.00273014 50931
INTELSAT 22 (IS-22)     
1 38098U 12011A   25247.10861619 -.00000060  00000+0  00000+0 0  9990
2 38098   0.0161 223.0592 0001991 312.7038 278.9288  1.00273481  4313
INTELSAT 19 (IS-19)     
1 38356U 12030A   25247.20808682  .00000000  00000+0  00000+0 0  9993
2 38356   0.0229 130.6149 0002997  31.8568  62.0232  1.00270362 47582
INTELSAT 20 (IS-20)     
1 38740U 12043A   25246.40947369 -.00000024  00000+0  00000+0 0  9998
2 38740   0.0181 139.7778 0001397  64.4731 354.4285  1.00272558 47878
INTELSAT 21 (IS-21)     
1 38749U 12045A   25245.19211215 -.00000283  00000+0  00000+0 0  9995
2 38749   0.0187 132.2448 0001957  26.5062 193.9972  1.00269819 47632
INTELSAT 23 (IS-23)     
1 38867U 12057A   25247.19489273 -.00000286  00000+0  00000+0 0  9995
2 38867   0.0527 261.9700 0000759 281.4587 177.2941  1.00270282 47081
FM-6                    
1 39360U 13058A   25247.21400332 -.00000018  00000+0  00000+0 0  9991
2 39360   0.0241 123.3182 0002450  52.2552 128.8669  1.00269543 43199
INTELSAT 30 (IS-30)     
1 40271U 14062A   25246.93275409  .00000000  00000+0  00000+0 0  9993
2 40271   0.0242 114.2487 0001718 304.8603 164.9221  1.00268190  3917
DIRECTV 14              
1 40333U 14078B   25246.57499810  .00000000  00000+0  00000+0 0  9993
2 40333   0.0248 130.8941 0000417  72.4651 247.3733  1.00269071 39166
DIRECTV 15              
1 40663U 15026A   25246.53100178 -.00000103  00000+0  00000+0 0  9990
2 40663   0.0304  95.6920 0000399 356.9456 338.5625  1.00271886 37586
SKY MEXICO-1            
1 40664U 15026B   25247.07871605 -.00000235  00000+0  00000+0 0  9997
2 40664   0.0185 236.5947 0002215 287.6937 128.7286  1.00269869 37582
INTELSAT 34 (IS-34)     
1 40874U 15039A   25247.19489273  .00000000  00000+0  00000+0 0  9992
2 40874   0.0208 145.5432 0001412 227.1470 345.5376  1.00267009 36759
INTELSAT 31 (IS-31)     
1 41581U 16035A   25247.21825001 -.00000152  00000+0  00000+0 0  9990
2 41581   0.0230 224.8930 0001641 349.6771 112.5256  1.00270504 33819
INTELSAT 36 (IS-36)     
1 41747U 16053A   25247.17924985  .00000000  00000+0  00000+0 0  9991
2 41747   0.0231 116.9101 0001411 226.4733 133.1764  1.00269029 33082
INTELSAT 32E (IS-32E)   
1 41945U 17007B   25246.72883750 -.00000270  00000+0  00000+0 0  9995
2 41945   0.0182 103.1485 0000343 310.2232 148.9294  1.00269572 31352
INTELSAT 35E (IS-35E)   
1 42818U 17041A   25247.26225424 -.00000239  00000+0  00000+0 0  9996
2 42818   0.0308 254.9813 0002220 294.7494 213.8323  1.00271218 29941
INTELSAT 37E (IS-37E)   
1 42950U 17059A   25246.87659383 -.00000141  00000+0  00000+0 0  9995
2 42950   0.0158 131.8245 0002833  33.1329 115.8801  1.00272141 29190
AZERSPACE 2 (IS-38)     
1 43632U 18074A   25247.17465649  .00000000  00000+0  00000+0 0  9998
2 43632   0.0271 135.0201 0001530  31.2453 285.2600  1.00270640 25571
HORIZONS-3E             
1 43633U 18074B   25246.46572527 -.00000030  00000+0  00000+0 0  9998
2 43633   0.0382 264.6114 0001537  31.7030  23.2089  1.00271842 25464
AT&T T-16               
1 44333U 19034A   25246.86021376 -.00000115  00000+0  00000+0 0  9992
2 44333   0.0225  99.7939 0000442 345.6208 106.6137  1.00268884 22760
INTELSAT 39 (IS-39)     
1 44476U 19049B   25247.20114006  .00000000  00000+0  00000+0 0  9990
2 44476   0.0245 144.1162 0000635 207.6667 126.1425  1.00269515 22267
GALAXY 30 (G-30)        
1 46114U 20056C   25247.21226999  .00000000  00000+0  00000+0 0  9997
2 46114   0.0221 151.0177 0002633  20.0607 123.9201  1.00270196 18423
GALAXY 33 (G-33)        
1 54026U 22128A   25247.13929633  .00000078  00000+0  00000+0 0  9991
2 54026   0.0135 175.6823 0001941 344.0852 100.8983  1.00272478 10877
GALAXY 34 (G-34)        
1 54027U 22128B   25247.06874934  .00000058  00000+0  00000+0 0  9995
2 54027   0.0117 128.8498 0001429  40.3276  70.0087  1.00272630 11046
GALAXY 31 (G-31)        
1 54243U 22153A   25247.21304999  .00000012  00000+0  00000+0 0  9999
2 54243   0.0179 203.7674 0001284 334.8214 120.6945  1.00272280  4267
GALAXY 32 (G-32)        
1 54244U 22153B   25246.64780380  .00000000  00000+0  00000+0 0  9995
2 54244   0.0222 125.1996 0000600 310.8017  49.2373  1.00269229 10275
GALAXY 35 (G-35)        
1 54741U 22170A   25247.21859668 -.00000163  00000+0  00000+0 0  9997
2 54741   0.0252 227.1622 0002010 291.4896 170.5327  1.00271718 10021
GALAXY 36 (G-36)        
1 54742U 22170B   25246.57699145 -.00000186  00000+0  00000+0 0  9993
2 54742   0.0107 147.5547 0002344 339.3945 334.7270  1.00273790  9907
GALAXY 37 (G-37)        
1 57493U 23112A   25247.06909602  .00000047  00000+0  00000+0 0  9998
2 57493   0.0201 111.2250 0002084  58.7713  71.3279  1.00272900  7670
